[{"OBJECT_NAME":"JILIN-1 GAOFEN 03D47","OBJECT_ID":"2022-167L","EPOCH":"2026-03-09T22:56:46.924224","MEAN_MOTION":15.31686941,"ECCENTRICITY":0.00089304,"INCLINATION":97.6835,"RA_OF_ASC_NODE":234.6581,"ARG_OF_PERICENTER":110.4031,"MEAN_ANOMALY":249.8169,"EPHEMERIS_TYPE":0,"CLASSIFICATION_TYPE":"U","NORAD_CAT_ID":54692,"ELEMENT_SET_NO":999,"REV_AT_EPOCH":18014,"BSTAR":0.00047294748,"MEAN_MOTION_DOT":0.00014417,"MEAN_MOTION_DDOT":0},{"OBJECT_NAME":"STARLINK-35968","OBJECT_ID":"2025-271V","EPOCH":"2026-03-09T11:47:29.103648","MEAN_MOTION":15.30186599,"ECCENTRICITY":0.00010821,"INCLINATION":53.1577,"RA_OF_ASC_NODE":141.0485,"ARG_OF_PERICENTER":82.9488,"MEAN_ANOMALY":277.1636,"EPHEMERIS_TYPE":0,"CLASSIFICATION_TYPE":"U","NORAD_CAT_ID":66636,"ELEMENT_SET_NO":999,"REV_AT_EPOCH":1753,"BSTAR":0.0012129133,"MEAN_MOTION_DOT":0.00035722,"MEAN_MOTION_DDOT":0}]
